{"type": "FeatureCollection", "features": [ {"type": "Feature", "properties": {"norad_id": 35982, "name": "COSMOS 2251 DEB", "group": "cosmos-2251-debris", "lat": 1.992023257058843, "lon": 140.21705813440806, "alt_km": 727.5729223845792, "timestamp": "2025-12-26T09:30:54.036992+00:00", "meta": {"OBJECT_NAME": "COSMOS 2251 DEB", "OBJECT_ID": "1993-036AVY", "EPOCH": "2025-12-24T04:11:05.846208", "MEAN_MOTION": 14.628153, "ECCENTRICITY": 0.00645539, "INCLINATION": 74.0585, "RA_OF_ASC_NODE": 325.0386, "ARG_OF_PERICENTER": 27.9995, "MEAN_ANOMALY": 332.4619, "EPHEMERIS_TYPE": 0, "CLASSIFICATION_TYPE": "U", "NORAD_CAT_ID": 35982, "ELEMENT_SET_NO": 999, "REV_AT_EPOCH": 86333, "BSTAR": 0.00066289609, "MEAN_MOTION_DOT": 3.457e-05, "MEAN_MOTION_DDOT": 0}, "tle": {"line1": "1 35982U 93036AVY 25358.17437322  .00003457  00000+0  66290-3 0  9994", "line2": "2 35982  74.0585 325.0386 0064553  27.9995 332.4619 14.62815300863330"}}, "geometry": {"type": "Point", "coordinates": [140.21705813440806, 1.992023257058843]}}, {"type": "Feature", "properties": {"norad_id": 35987, "name": "COSMOS 2251 DEB", "group": "cosmos-2251-debris", "lat": -67.17882044892595, "lon": -101.76657677530973, "alt_km": 778.6318867158816, "timestamp": "2025-12-26T09:30:54.037001+00:00", "meta": {"OBJECT_NAME": "COSMOS 2251 DEB", "OBJECT_ID": "1993-036AWD", "EPOCH": "2025-12-24T02:57:19.909440", "MEAN_MOTION": 14.43193556, "ECCENTRICITY": 0.00463714, "INCLINATION": 74.0006, "RA_OF_ASC_NODE": 305.4518, "ARG_OF_PERICENTER": 67.5999, "MEAN_ANOMALY": 293.006, "EPHEMERIS_TYPE": 0, "CLASSIFICATION_TYPE": "U", "NORAD_CAT_ID": 35987, "ELEMENT_SET_NO": 999, "REV_AT_EPOCH": 61229, "BSTAR": 0.0010350673, "MEAN_MOTION_DOT": 3.5e-05, "MEAN_MOTION_DDOT": 0}, "tle": {"line1": "1 35987U 93036AWD 25358.12314710  .00003500  00000+0  10351-2 0  9994", "line2": "2 35987  74.0006 305.4518 0046371  67.5999 293.0060 14.43193556612294"}}, "geometry": {"type": "Point", "coordinates": [-101.76657677530973, -67.17882044892595]}}, {"type": "Feature", "properties": {"norad_id": 35989, "name": "COSMOS 2251 DEB", "group": "cosmos-2251-debris", "lat": 32.94693740436656, "lon": -90.59117846523237, "alt_km": 756.8722669428698, "timestamp": "2025-12-26T09:30:54.037012+00:00", "meta": {"OBJECT_NAME": "COSMOS 2251 DEB", "OBJECT_ID": "1993-036AWF", "EPOCH": "2025-12-24T23:56:32.042112", "MEAN_MOTION": 14.37117846, "ECCENTRICITY": 0.00225269, "INCLINATION": 74.0381, "RA_OF_ASC_NODE": 261.2904, "ARG_OF_PERICENTER": 340.4505, "MEAN_ANOMALY": 19.5782, "EPHEMERIS_TYPE": 0, "CLASSIFICATION_TYPE": "U", "NORAD_CAT_ID": 35989, "ELEMENT_SET_NO": 999, "REV_AT_EPOCH": 87355, "BSTAR": 0.00020115023, "MEAN_MOTION_DOT": 5.73e-06, "MEAN_MOTION_DDOT": 0}, "tle": {"line1": "1 35989U 93036AWF 25358.99759308  .00000573  00000+0  20115-3 0  9994", "line2": "2 35989  74.0381 261.2904 0022526 340.4505  19.5782 14.37117846873553"}}, "geometry": {"type": "Point", "coordinates": [-90.59117846523237, 32.94693740436656]}}, {"type": "Feature", "properties": {"norad_id": 35993, "name": "COSMOS 2251 DEB", "group": "cosmos-2251-debris", "lat": -38.25229293683521, "lon": 139.54460060660583, "alt_km": 681.1584131942227, "timestamp": "2025-12-26T09:30:54.037022+00:00", "meta": {"OBJECT_NAME": "COSMOS 2251 DEB", "OBJECT_ID": "1993-036AWK", "EPOCH": "2025-12-21T03:59:29.501088", "MEAN_MOTION": 14.65356197, "ECCENTRICITY": 0.0028516, "INCLINATION": 74.0154, "RA_OF_ASC_NODE": 316.5577, "ARG_OF_PERICENTER": 143.4068, "MEAN_ANOMALY": 216.9056, "EPHEMERIS_TYPE": 0, "CLASSIFICATION_TYPE": "U", "NORAD_CAT_ID": 35993, "ELEMENT_SET_NO": 999, "REV_AT_EPOCH": 60566, "BSTAR": 0.00046927088, "MEAN_MOTION_DOT": 2.519e-05, "MEAN_MOTION_DDOT": 0}, "tle": {"line1": "1 35993U 93036AWK 25355.16631367  .00002519  00000+0  46927-3 0  9990", "line2": "2 35993  74.0154 316.5577 0028516 143.4068 216.9056 14.65356197605663"}}, "geometry": {"type": "Point", "coordinates": [139.54460060660583, -38.25229293683521]}}, {"type": "Feature", "properties": {"norad_id": 35996, "name": "COSMOS 2251 DEB", "group": "cosmos-2251-debris", "lat": -52.61608985525613, "lon": 53.19973091586384, "alt_km": 591.8382216160744, "timestamp": "2025-12-26T09:30:54.037032+00:00", "meta": {"OBJECT_NAME": "COSMOS 2251 DEB", "OBJECT_ID": "1993-036AWN", "EPOCH": "2025-12-15T22:25:06.327264", "MEAN_MOTION": 15.09228347, "ECCENTRICITY": 0.00876626, "INCLINATION": 74.0159, "RA_OF_ASC_NODE": 96.8248, "ARG_OF_PERICENTER": 187.0066, "MEAN_ANOMALY": 172.9909, "EPHEMERIS_TYPE": 0, "CLASSIFICATION_TYPE": "U", "NORAD_CAT_ID": 35996, "ELEMENT_SET_NO": 999, "REV_AT_EPOCH": 72374, "BSTAR": 0.00054952121, "MEAN_MOTION_DOT": 9.536e-05, "MEAN_MOTION_DDOT": 0}, "tle": {"line1": "1 35996U 93036AWN 25349.93410101  .00009536  00000+0  54952-3 0  9995", "line2": "2 35996  74.0159  96.8248 0087662 187.0066 172.9909 15.09228347723745"}}, "geometry": {"type": "Point", "coordinates": [53.19973091586384, -52.61608985525613]}}, {"type": "Feature", "properties": {"norad_id": 35997, "name": "COSMOS 2251 DEB", "group": "cosmos-2251-debris", "lat": 63.216833898097306, "lon": -163.860695841898, "alt_km": 725.321775525128, "timestamp": "2025-12-26T09:30:54.037042+00:00", "meta": {"OBJECT_NAME": "COSMOS 2251 DEB", "OBJECT_ID": "1993-036AWP", "EPOCH": "2025-12-23T05:06:13.780800", "MEAN_MOTION": 14.51360271, "ECCENTRICITY": 0.0015396, "INCLINATION": 74.0436, "RA_OF_ASC_NODE": 167.5974, "ARG_OF_PERICENTER": 242.7596, "MEAN_ANOMALY": 117.1997, "EPHEMERIS_TYPE": 0, "CLASSIFICATION_TYPE": "U", "NORAD_CAT_ID": 35997, "ELEMENT_SET_NO": 999, "REV_AT_EPOCH": 71036, "BSTAR": 0.00062809556, "MEAN_MOTION_DOT": 2.48e-05, "MEAN_MOTION_DDOT": 0}, "tle": {"line1": "1 35997U 93036AWP 25357.21265950  .00002480  00000+0  62810-3 0  9999", "line2": "2 35997  74.0436 167.5974 0015396 242.7596 117.1997 14.51360271710369"}}, "geometry": {"type": "Point", "coordinates": [-163.860695841898, 63.216833898097306]}}, {"type": "Feature", "properties": {"norad_id": 36005, "name": "COSMOS 2251 DEB", "group": "cosmos-2251-debris", "lat": -73.31069046060801, "lon": -38.732362769878435, "alt_km": 720.5947761228808, "timestamp": "2025-12-26T09:30:54.037052+00:00", "meta": {"OBJECT_NAME": "COSMOS 2251 DEB", "OBJECT_ID": "1993-036AWX", "EPOCH": "2025-12-25T12:23:21.312096", "MEAN_MOTION": 14.47376705, "ECCENTRICITY": 0.0061491, "INCLINATION": 74.027, "RA_OF_ASC_NODE": 70.1013, "ARG_OF_PERICENTER": 204.7491, "MEAN_ANOMALY": 155.0716, "EPHEMERIS_TYPE": 0, "CLASSIFICATION_TYPE": "U", "NORAD_CAT_ID": 36005, "ELEMENT_SET_NO": 999, "REV_AT_EPOCH": 87769, "BSTAR": 0.00018917, "MEAN_MOTION_DOT": 6.81e-06, "MEAN_MOTION_DDOT": 0}, "tle": {"line1": "1 36005U 93036AWX 25359.51621889  .00000681  00000+0  18917-3 0  9992", "line2": "2 36005  74.0270  70.1013 0061491 204.7491 155.0716 14.47376705877692"}}, "geometry": {"type": "Point", "coordinates": [-38.732362769878435, -73.31069046060801]}}, {"type": "Feature", "properties": {"norad_id": 36045, "name": "COSMOS 2251 DEB", "group": "cosmos-2251-debris", "lat": -7.708778672208749, "lon": 29.907972797326906, "alt_km": 642.0090621125682, "timestamp": "2025-12-26T09:30:54.037062+00:00", "meta": {"OBJECT_NAME": "COSMOS 2251 DEB", "OBJECT_ID": "1993-036AXG", "EPOCH": "2025-12-25T18:51:09.820512", "MEAN_MOTION": 14.70126783, "ECCENTRICITY": 0.00481863, "INCLINATION": 73.7639, "RA_OF_ASC_NODE": 33.3725, "ARG_OF_PERICENTER": 42.7479, "MEAN_ANOMALY": 317.7422, "EPHEMERIS_TYPE": 0, "CLASSIFICATION_TYPE": "U", "NORAD_CAT_ID": 36045, "ELEMENT_SET_NO": 999, "REV_AT_EPOCH": 8580, "BSTAR": 0.0019792392, "MEAN_MOTION_DOT": 0.00012107, "MEAN_MOTION_DDOT": 0}, "tle": {"line1": "1 36045U 93036AXG 25359.78553033  .00012107  00000+0  19792-2 0  9997", "line2": "2 36045  73.7639  33.3725 0048186  42.7479 317.7422 14.70126783 85804"}}, "geometry": {"type": "Point", "coordinates": [29.907972797326906, -7.708778672208749]}}, {"type": "Feature", "properties": {"norad_id": 36046, "name": "COSMOS 2251 DEB", "group": "cosmos-2251-debris", "lat": -2.621248583158445, "lon": 70.94068349769933, "alt_km": 713.1053047626228, "timestamp": "2025-12-26T09:30:54.037073+00:00", "meta": {"OBJECT_NAME": "COSMOS 2251 DEB", "OBJECT_ID": "1993-036AXH", "EPOCH": "2025-12-21T00:56:56.522112", "MEAN_MOTION": 14.65315014, "ECCENTRICITY": 0.00558701, "INCLINATION": 74.0169, "RA_OF_ASC_NODE": 260.5061, "ARG_OF_PERICENTER": 44.1197, "MEAN_ANOMALY": 331.1837, "EPHEMERIS_TYPE": 0, "CLASSIFICATION_TYPE": "U", "NORAD_CAT_ID": 36046, "ELEMENT_SET_NO": 999, "REV_AT_EPOCH": 64125, "BSTAR": 0.00034570915, "MEAN_MOTION_DOT": 1.877e-05, "MEAN_MOTION_DDOT": 0}, "tle": {"line1": "1 36046U 93036AXH 25355.03954308  .00001877  00000+0  34571-3 0  9997", "line2": "2 36046  74.0169 260.5061 0055870  44.1197 331.1837 14.65315014641253"}}, "geometry": {"type": "Point", "coordinates": [70.94068349769933, -2.621248583158445]}}, {"type": "Feature", "properties": {"norad_id": 36047, "name": "COSMOS 2251 DEB", "group": "cosmos-2251-debris", "lat": -15.470576929688008, "lon": 131.10758486407914, "alt_km": 585.9776719185174, "timestamp": "2025-12-26T09:30:54.037083+00:00", "meta": {"OBJECT_NAME": "COSMOS 2251 DEB", "OBJECT_ID": "1993-036AXJ", "EPOCH": "2025-12-21T21:08:53.075040", "MEAN_MOTION": 14.96393257, "ECCENTRICITY": 0.000841, "INCLINATION": 74.036, "RA_OF_ASC_NODE": 315.6865, "ARG_OF_PERICENTER": 344.906, "MEAN_ANOMALY": 15.1873, "EPHEMERIS_TYPE": 0, "CLASSIFICATION_TYPE": "U", "NORAD_CAT_ID": 36047, "ELEMENT_SET_NO": 999, "REV_AT_EPOCH": 66076, "BSTAR": 0.0028311075, "MEAN_MOTION_DOT": 0.00032218, "MEAN_MOTION_DDOT": 0}, "tle": {"line1": "1 36047U 93036AXJ 25355.88116985  .00032218  00000+0  28311-2 0  9999", "line2": "2 36047  74.0360 315.6865 0008410 344.9060  15.1873 14.96393257660764"}}, "geometry": {"type": "Point", "coordinates": [131.10758486407914, -15.470576929688008]}}]}